H1 CPF  1  DLR 2021 07 17 10  6982 technosat            
H2  1704205 6203    42829 2021 07 17 00 00 00 2021 07 24 00 00 00    60 1 1  0 0 0
H9
10 0 59412  14400.000000  0        264222.177       3241193.798      -6180514.516
10 0 59412  14460.000000  0        436449.561       3605058.622      -5964660.557
10 0 59412  14520.000000  0        609965.172       3952347.351      -5723702.382
10 0 59412  14580.000000  0        783890.677       4281589.692      -5458637.171
10 0 59412  14640.000000  0        957332.365       4591395.932      -5170564.392
10 0 59412  14700.000000  0       1129385.580       4880463.082      -4860681.678
10 0 59412  14760.000000  0       1299139.294       5147580.676      -4530280.203
10 0 59412  14820.000000  0       1465680.780       5391636.159      -4180739.628
10 0 59412  14880.000000  0       1628100.364       5611619.875      -3813522.651
10 0 59412  14940.000000  0       1785496.228       5806629.645      -3430169.176
10 0 59412  15000.000000  0       1936979.270       5975874.915      -3032290.074
10 0 59412  15060.000000  0       2081677.966       6118680.424      -2621560.563
10 0 59412  15120.000000  0       2218743.230       6234489.360      -2199713.233
10 0 59412  15180.000000  0       2347353.212       6322865.961      -1768530.712
10 0 59412  15240.000000  0       2466718.012       6383497.542      -1329838.050
10 0 59412  15300.000000  0       2576084.275       6416195.910       -885494.833
10 0 59412  15360.000000  0       2674739.654       6420898.171       -437387.115
10 0 59412  15420.000000  0       2762017.084       6397666.913         12580.831
10 0 59412  15480.000000  0       2837298.854       6346689.775        462494.849
10 0 59412  15540.000000  0       2900020.463       6268278.425        910439.319
10 0 59412  15600.000000  0       2949674.214       6162866.937       1354505.632
10 0 59412  15660.000000  0       2985812.523       6031009.532       1792800.654
10 0 59412  15720.000000  0       3008050.941       5873377.735       2223455.115
10 0 59412  15780.000000  0       3016070.876       5690756.959       2644631.911
10 0 59412  15840.000000  0       3009621.963       5484042.507       3054534.278
10 0 59412  15900.000000  0       2988524.075       5254235.014       3451413.733
10 0 59412  15960.000000  0       2952669.028       5002435.473       3833577.751
10 0 59412  16020.000000  0       2902021.871       4729839.783       4199397.296
10 0 59412  16080.000000  0       2836621.699       4437732.722       4547314.061
10 0 59412  16140.000000  0       2756582.022       4127481.454       4875847.173
10 0 59412  16200.000000  0       2662090.844       3800528.827       5183599.418
10 0 59412  16260.000000  0       2553410.405       3458386.405       5469263.153
10 0 59412  16320.000000  0       2430876.549       3102627.206       5731625.768
10 0 59412  16380.000000  0       2294897.741       2734878.283       5969574.766
10 0 59412  16440.000000  0       2145953.673       2356813.057       6182102.477
10 0 59412  16500.000000  0       1984593.473       1970143.417       6368310.214
10 0 59412  16560.000000  0       1811433.583       1576611.734       6527411.889
10 0 59412  16620.000000  0       1627155.293       1177982.836       6658737.129
10 0 59412  16680.000000  0       1432501.945        776035.975       6761733.867
10 0 59412  16740.000000  0       1228275.865        372556.865       6835970.457
10 0 59412  16800.000000  0       1015335.000        -30670.250       6881137.429
10 0 59412  16860.000000  0        794589.240       -431870.611       6897048.754
10 0 59412  16920.000000  0        566996.448       -829286.880       6883642.484
10 0 59412  16980.000000  0        333558.245      -1221186.866       6840980.890
10 0 59412  17040.000000  0         95315.527      -1605871.131       6769250.126
10 0 59412  17100.000000  0       -146656.226      -1981680.404       6668759.363
10 0 59412  17160.000000  0       -391251.865      -2347002.808       6539939.442
10 0 59412  17220.000000  0       -637341.633      -2700280.839       6383340.958
10 0 59412  17280.000000  0       -883776.330      -3040017.997       6199631.862
10 0 59412  17340.000000  0      -1129392.610      -3364785.125       5989594.689
10 0 59412  17400.000000  0      -1373018.438      -3673226.506       5754123.372
10 0 59412  17460.000000  0      -1613478.712      -3964065.603       5494219.587
10 0 59412  17520.000000  0      -1849600.959      -4236110.501       5210988.631
10 0 59412  17580.000000  0      -2080221.111      -4488258.980       4905634.829
10 0 59412  17640.000000  0      -2304189.306      -4719503.157       4579456.468
10 0 59412  17700.000000  0      -2520375.687      -4928933.696       4233840.297
10 0 59412  17760.000000  0      -2727676.114      -5115743.552       3870255.569
10 0 59412  17820.000000  0      -2925017.788      -5279231.187       3490247.706
10 0 59412  17880.000000  0      -3111364.754      -5418803.242       3095431.652
10 0 59412  17940.000000  0      -3285723.268      -5533976.751       2687484.945
10 0 59412  18000.000000  0      -3447147.014      -5624380.829       2268140.481
10 0 59412  18060.000000  0      -3594742.130      -5689757.841       1839179.017
10 0 59412  18120.000000  0      -3727672.019      -5729964.002       1402421.444
10 0 59412  18180.000000  0      -3845161.889      -5744969.433        959720.866
10 0 59412  18240.000000  0      -3946503.004      -5734857.648        512954.562
10 0 59412  18300.000000  0      -4031056.658      -5699824.543         64015.842
10 0 59412  18360.000000  0      -4098257.797      -5640176.828       -385194.202
10 0 59412  18420.000000  0      -4147618.285      -5556329.907       -832774.960
10 0 59412  18480.000000  0      -4178729.792      -5448805.236      -1276834.547
10 0 59412  18540.000000  0      -4191266.275      -5318227.157      -1715497.959
10 0 59412  18600.000000  0      -4184986.072      -5165319.276      -2146915.108
10 0 59412  18660.000000  0      -4159733.569      -4990900.376      -2569268.707
10 0 59412  18720.000000  0      -4115440.437      -4795879.910      -2980781.940
10 0 59412  18780.000000  0      -4052126.442      -4581253.131      -3379725.893
10 0 59412  18840.000000  0      -3969899.844      -4348095.863      -3764426.722
10 0 59412  18900.000000  0      -3868957.367      -4097558.971      -4133272.512
10 0 59412  18960.000000  0      -3749583.786      -3830862.569      -4484719.836
10 0 59412  19020.000000  0      -3612151.092      -3549289.948      -4817300.005
10 0 59412  19080.000000  0      -3457117.246      -3254181.292      -5129624.911
10 0 59412  19140.000000  0      -3285024.560      -2946927.214      -5420392.504
10 0 59412  19200.000000  0      -3096497.703      -2628962.174      -5688391.856
10 0 59412  19260.000000  0      -2892241.359      -2301757.797      -5932507.856
10 0 59412  19320.000000  0      -2673037.533      -1966816.094      -6151725.540
10 0 59412  19380.000000  0      -2439742.464      -1625662.597      -6345133.965
10 0 59412  19440.000000  0      -2193283.229      -1279839.504      -6511929.619
10 0 59412  19500.000000  0      -1934654.055       -930898.833      -6651419.411
10 0 59412  19560.000000  0      -1664912.339       -580395.614      -6763023.199
10 0 59412  19620.000000  0      -1385174.440       -229881.175      -6846275.893
10 0 59412  19680.000000  0      -1096611.230        119103.461      -6900829.207
10 0 59412  19740.000000  0       -800443.336        465034.110      -6926453.044
10 0 59412  19800.000000  0       -497936.132        806409.892      -6923036.422
10 0 59412  19860.000000  0       -190394.535       1141759.554      -6890587.894
10 0 59412  19920.000000  0        120842.343       1469647.521      -6829235.595
10 0 59412  19980.000000  0        434406.774       1788679.883      -6739227.052
10 0 59412  20040.000000  0        748908.316       2097510.276      -6620928.437
10 0 59412  20100.000000  0       1062939.843       2394845.455      -6474823.259
10 0 59412  20160.000000  0       1375083.623       2679450.644      -6301510.699
10 0 59412  20220.000000  0       1683917.551       2950154.722      -6101703.532
10 0 59412  20280.000000  0       1988021.537       3205855.066      -5876225.529
10 0 59412  20340.000000  0       2285983.925       3445522.072      -5626008.469
10 0 59412  20400.000000  0       2576407.960       3668203.419      -5352088.735
10 0 59412  20460.000000  0       2857918.307       3873028.068      -5055603.473
10 0 59412  20520.000000  0       3129167.596       4059209.902      -4737786.289
10 0 59412  20580.000000  0       3388842.940       4226051.007      -4399962.499
10 0 59412  20640.000000  0       3635672.373       4372944.553      -4043543.928
10 0 59412  20700.000000  0       3868431.214       4499377.287      -3670023.342
10 0 59412  20760.000000  0       4085948.345       4604931.599      -3280968.406
10 0 59412  20820.000000  0       4287112.243       4689287.114      -2878015.212
10 0 59412  20880.000000  0       4470876.772       4752221.808      -2462861.526
10 0 59412  20940.000000  0       4636266.772       4793612.728      -2037259.757
10 0 59412  21000.000000  0       4782383.461       4813436.267      -1603009.549
10 0 59412  21060.000000  0       4908409.474       4811767.854      -1161950.007
10 0 59412  21120.000000  0       5013613.460       4788781.146       -715951.745
10 0 59412  21180.000000  0       5097354.295       4744746.772       -266908.751
10 0 59412  21240.000000  0       5159084.875       4680030.580        183269.876
10 0 59412  21300.000000  0       5198355.482       4595091.462        632668.276
10 0 59412  21360.000000  0       5214816.748       4490478.697       1079372.269
10 0 59412  21420.000000  0       5208222.129       4366828.823       1521477.828
10 0 59412  21480.000000  0       5178429.889       4224862.084       1957099.568
10 0 59412  21540.000000  0       5125404.496       4065378.398       2384379.206
99
